{"type":"FeatureCollection","features":[{"id":"3262","type":"Feature","properties":{"ST_NAME":"PUDUCHERRY","AC_NO":30,"AC_NAME":"Yanam","DIST_NAME":"YANAM","PC_NAME":"PONDICHERRY"},"geometry":{"type":"Polygon","coordinates":[[[82.26746941198383,16.694650883731356],[82.23904142122467,16.71629207861656],[82.19341125592479,16.721634859161497],[82.18632227435353,16.73708372353508],[82.20558060665974,16.73459044849045],[82.21192147189845,16.75110395278523],[82.2281423628798,16.76072757281929],[82.23198202914739,16.754827173934984],[82.22439967050843,16.753038763228403],[82.21747587191402,16.732766348188477],[82.25806297102935,16.720423436392537],[82.2897133963562,16.726669781984924],[82.30549417261801,16.748266777889512],[82.31378634636286,16.729395269176393],[82.30914608112681,16.71680800078866],[82.26746941198383,16.694650883731356]]]}},{"id":"3263","type":"Feature","properties":{"ST_NAME":"PUDUCHERRY","AC_NO":1,"AC_NAME":"Mannadipet","DIST_NAME":"PONDICHERRY","PC_NAME":"PONDICHERRY"},"geometry":{"type":"MultiPolygon","coordinates":[[[[79.62788161864182,12.031789054421381],[79.65136154130215,12.02229862847895],[79.63599179028893,11.996032146566336],[79.63637099662424,11.977815269659004],[79.64832302079083,11.967328520794638],[79.64575086081362,11.941256432738214],[79.62848811513447,11.945184478081273],[79.62746999264613,11.968075015649504],[79.61854044598488,11.970481882932575],[79.62449831334652,11.97600185959817],[79.61710683131525,11.989568649773389],[79.6235913515597,11.989278273073865],[79.62624687599259,12.000381581844579],[79.61887811083619,12.001277937926545],[79.62924499356166,12.018691999036548],[79.62788161864182,12.031789054421381]]],[[[79.69503087877212,12.035557766877503],[79.70476545985815,12.031984924964377],[79.70280772659538,12.011071045992026],[79.71960396605027,11.992169294877101],[79.68541354409984,11.99162119316361],[79.68083491120223,11.98334483039963],[79.67384995331275,11.995053006990702],[79.65693933268409,11.991563717491601],[79.66136067865244,12.012296083597448],[79.67222552948465,12.009695395326276],[79.69503087877212,12.035557766877503]]]]}},{"id":"3264","type":"Feature","properties":{"ST_NAME":"PUDUCHERRY","AC_NO":3,"AC_NAME":"Oussudu (SC)","DIST_NAME":"PONDICHERRY","PC_NAME":"PONDICHERRY"},"geometry":{"type":"MultiPolygon","coordinates":[[[[79.76971573459355,11.943996032091263],[79.76953829115928,11.928953458035721],[79.76119469957581,11.928517378574213],[79.75987826117284,11.943645980877363],[79.76971573459355,11.943996032091263]]],[[[79.74755996022407,12.00783373393972],[79.76237916876369,12.002674271200704],[79.7603634355242,11.989243656369695],[79.74279644200226,11.977771224462515],[79.72643862294416,11.985679120594966],[79.72354564331687,11.977543936103814],[79.74451776148555,11.964934047967972],[79.74911962477091,11.929464816148368],[79.73463566550362,11.911803525112646],[79.71748098146219,11.92897454983563],[79.72084718794741,11.94489838485265],[79.70962091847065,11.94984042389649],[79.70796297421197,11.9440945815997],[79.70006371876565,11.962763964985072],[79.71498542483755,11.967618362397559],[79.70926567816855,11.975726317215788],[79.72055235510715,11.99268873609634],[79.73338884991557,11.993256036536934],[79.74755996022407,12.00783373393972]]]]}},{"id":"3265","type":"Feature","properties":{"ST_NAME":"PUDUCHERRY","AC_NO":12,"AC_NAME":"Kalapet","DIST_NAME":"PONDICHERRY","PC_NAME":"PONDICHERRY"},"geometry":{"type":"MultiPolygon","coordinates":[[[[79.81254205477205,11.97793443162874],[79.82837087551553,11.958715398796642],[79.8162931198317,11.9689451016352],[79.81638892101194,11.95856452583223],[79.80528451776632,11.963633453820876],[79.81254205477205,11.97793443162874]]],[[[79.78831721286912,12.019235012385934],[79.80531436626507,12.024543899281582],[79.79833371882614,12.0169512218215],[79.78831721286912,12.019235012385934]]],[[[79.85757859377713,12.007777415695216],[79.84046957101395,12.013271028735062],[79.84976469838216,12.051816568779657],[79.87379284776176,12.042623533349456],[79.85757859377713,12.007777415695216]]]]}},{"id":"3266","type":"Feature","properties":{"ST_NAME":"PUDUCHERRY","AC_NO":11,"AC_NAME":"Lawspet","DIST_NAME":"PONDICHERRY","PC_NAME":"PONDICHERRY"},"geometry":{"type":"Polygon","coordinates":[[[79.80528451776632,11.963633453820876],[79.81638892101194,11.95856452583223],[79.8162931198317,11.9689451016352],[79.82387716020281,11.957557349891829],[79.81619455143743,11.949150019757667],[79.81022513947869,11.95622650165177],[79.80732379345835,11.946321612352563],[79.80528451776632,11.963633453820876]]]}},{"id":"3267","type":"Feature","properties":{"ST_NAME":"PUDUCHERRY","AC_NO":8,"AC_NAME":"Indira Nagar","DIST_NAME":"PONDICHERRY","PC_NAME":"PONDICHERRY"},"geometry":{"type":"Polygon","coordinates":[[[79.80322897064053,11.953216647030672],[79.79799739486396,11.939093115355035],[79.7846989731791,11.95477294271717],[79.78518851553764,11.93652532968025],[79.77050467205305,11.93575117797451],[79.78465595410904,11.959906229788714],[79.80322897064053,11.953216647030672]]]}},{"id":"3268","type":"Feature","properties":{"ST_NAME":"PUDUCHERRY","AC_NO":10,"AC_NAME":"Kamraj Nagar","DIST_NAME":"PONDICHERRY","PC_NAME":"PONDICHERRY"},"geometry":{"type":"Polygon","coordinates":[[[79.82837087551553,11.958715398796642],[79.8207307705087,11.934745485016151],[79.8079250603933,11.938575608577537],[79.81716519871503,11.942870347988219],[79.82837087551553,11.958715398796642]]]}},{"id":"3269","type":"Feature","properties":{"ST_NAME":"PUDUCHERRY","AC_NO":13,"AC_NAME":"Muthialpet","DIST_NAME":"PONDICHERRY","PC_NAME":"PONDICHERRY"},"geometry":{"type":"Polygon","coordinates":[[[79.82992843385023,11.957657203417227],[79.83886678487426,11.956074491045001],[79.8383811878416,11.947460015567287],[79.82468268925476,11.939504948194838],[79.82992843385023,11.957657203417227]]]}},{"id":"3270","type":"Feature","properties":{"ST_NAME":"PUDUCHERRY","AC_NO":9,"AC_NAME":"Thattanchavady","DIST_NAME":"PONDICHERRY","PC_NAME":"PONDICHERRY"},"geometry":{"type":"Polygon","coordinates":[[[79.81022513947869,11.95622650165177],[79.81716519871503,11.942870347988219],[79.79791593247438,11.93578113978782],[79.80732379345835,11.946321612352563],[79.81022513947869,11.95622650165177]]]}},{"id":"3271","type":"Feature","properties":{"ST_NAME":"PUDUCHERRY","AC_NO":2,"AC_NAME":"Thirubhuvanai (SC)","DIST_NAME":"PONDICHERRY","PC_NAME":"PONDICHERRY"},"geometry":{"type":"MultiPolygon","coordinates":[[[[79.658585286282,11.94457156312717],[79.67025672826543,11.935514512384884],[79.66885208885287,11.918413859611974],[79.62983339029876,11.901584383912223],[79.61890408955213,11.943223697016037],[79.658585286282,11.94457156312717]]],[[[79.69159727799206,11.951351023231211],[79.70006371876565,11.962763964985072],[79.71111225612577,11.933056494361779],[79.69159727799206,11.951351023231211]]],[[[79.6864862275574,11.973207077844393],[79.68460721824857,11.953355433106822],[79.67326527886956,11.947859207536453],[79.65465913221323,11.953452879147108],[79.66216470313861,11.96908749669069],[79.6864862275574,11.973207077844393]]]]}},{"id":"3272","type":"Feature","properties":{"ST_NAME":"PUDUCHERRY","AC_NO":14,"AC_NAME":"Raj Bhavan","DIST_NAME":"PONDICHERRY","PC_NAME":"PONDICHERRY"},"geometry":{"type":"Polygon","coordinates":[[[79.8383811878416,11.947460015567287],[79.83496321817802,11.92708723169045],[79.82714321458775,11.928251114497357],[79.82875236163227,11.933903076565798],[79.8207307705087,11.934745485016151],[79.8383811878416,11.947460015567287]]]}},{"id":"3273","type":"Feature","properties":{"ST_NAME":"PUDUCHERRY","AC_NO":6,"AC_NAME":"Ozhukarai","DIST_NAME":"PONDICHERRY","PC_NAME":"PONDICHERRY"},"geometry":{"type":"Polygon","coordinates":[[[79.79741494084692,11.93941352671294],[79.80662006946068,11.928008829044302],[79.7900511732231,11.91855971256075],[79.78073932925668,11.932005244446543],[79.76994621914275,11.925381876072777],[79.77491080868691,11.929299983007866],[79.76488926472786,11.933329667929854],[79.79431817484397,11.933522698413867],[79.79741494084692,11.93941352671294]]]}},{"id":"3274","type":"Feature","properties":{"ST_NAME":"PUDUCHERRY","AC_NO":17,"AC_NAME":"Nellithope","DIST_NAME":"PONDICHERRY","PC_NAME":"PONDICHERRY"},"geometry":{"type":"MultiPolygon","coordinates":[[[[79.81010825818964,11.930172744476636],[79.81653982904993,11.925320423598691],[79.81092575362067,11.924244232785156],[79.81010825818964,11.930172744476636]]],[[[79.81765738508034,11.934449322977912],[79.80518825163654,11.93104820121357],[79.8079250603933,11.938575608577537],[79.81765738508034,11.934449322977912]]]]}},{"id":"3275","type":"Feature","properties":{"ST_NAME":"PUDUCHERRY","AC_NO":7,"AC_NAME":"Kadirgamam","DIST_NAME":"PONDICHERRY","PC_NAME":"PONDICHERRY"},"geometry":{"type":"MultiPolygon","coordinates":[[[[79.80601462427552,11.93674148623063],[79.81092575362067,11.924244232785156],[79.80228717091626,11.922629578292458],[79.80662006946068,11.928008829044302],[79.79791593247438,11.93578113978782],[79.80601462427552,11.93674148623063]]],[[[79.7846989731791,11.95477294271717],[79.79741494084692,11.93941352671294],[79.79431817484397,11.933522698413867],[79.78518851553764,11.93652532968025],[79.7846989731791,11.95477294271717]]]]}},{"id":"3276","type":"Feature","properties":{"ST_NAME":"PUDUCHERRY","AC_NO":16,"AC_NAME":"Orleampeth","DIST_NAME":"PONDICHERRY","PC_NAME":"PONDICHERRY"},"geometry":{"type":"Polygon","coordinates":[[[79.81010825818964,11.930172744476636],[79.82875236163227,11.933903076565798],[79.82714321458775,11.928251114497357],[79.81010825818964,11.930172744476636]]]}},{"id":"3277","type":"Feature","properties":{"ST_NAME":"PUDUCHERRY","AC_NO":5,"AC_NAME":"Villianur","DIST_NAME":"PONDICHERRY","PC_NAME":"PONDICHERRY"},"geometry":{"type":"Polygon","coordinates":[[[79.76953829115928,11.928953458035721],[79.7884580610907,11.927174109797363],[79.79029424018711,11.897185271882847],[79.76320882932407,11.902988802990933],[79.76136435308251,11.913743829514146],[79.73749207779719,11.917147776948411],[79.74412654650297,11.929948996748863],[79.7502097604721,11.919951752471434],[79.76953829115928,11.928953458035721]]]}},{"id":"3278","type":"Feature","properties":{"ST_NAME":"PUDUCHERRY","AC_NO":15,"AC_NAME":"Oupalam","DIST_NAME":"PONDICHERRY","PC_NAME":"PONDICHERRY"},"geometry":{"type":"Polygon","coordinates":[[[79.81333035101494,11.920009471859714],[79.83496321817802,11.92708723169045],[79.83176804475954,11.91678237700512],[79.81333035101494,11.920009471859714]]]}},{"id":"3279","type":"Feature","properties":{"ST_NAME":"PUDUCHERRY","AC_NO":18,"AC_NAME":"Mudaliarpet","DIST_NAME":"PONDICHERRY","PC_NAME":"PONDICHERRY"},"geometry":{"type":"Polygon","coordinates":[[[79.81634076231637,11.925159469234188],[79.8070666781847,11.907942920829157],[79.79009389281896,11.915158522447882],[79.7900511732231,11.91855971256075],[79.81634076231637,11.925159469234188]]]}},{"id":"3280","type":"Feature","properties":{"ST_NAME":"PUDUCHERRY","AC_NO":19,"AC_NAME":"Ariankuppam","DIST_NAME":"PONDICHERRY","PC_NAME":"PONDICHERRY"},"geometry":{"type":"Polygon","coordinates":[[[79.83176804475954,11.91678237700512],[79.82479506404104,11.889963830966053],[79.79029424018711,11.897185271882847],[79.79009389281896,11.915158522447882],[79.8070666781847,11.907942920829157],[79.81333035101494,11.920009471859714],[79.83176804475954,11.91678237700512]]]}},{"id":"3281","type":"Feature","properties":{"ST_NAME":"PUDUCHERRY","AC_NO":4,"AC_NAME":"Mangalam","DIST_NAME":"PONDICHERRY","PC_NAME":"PONDICHERRY"},"geometry":{"type":"MultiPolygon","coordinates":[[[[79.69939958382378,11.87431956189829],[79.69908703074191,11.861265301652395],[79.69597923815138,11.860394261486022],[79.69939958382378,11.87431956189829]]],[[[79.69624346436444,11.919177025199588],[79.71860190635294,11.918974925052794],[79.70655783747429,11.913502348954296],[79.70525256235595,11.893877490753653],[79.7240945939904,11.88864547790655],[79.73127925353481,11.903150032548012],[79.74064997251827,11.905469611633293],[79.73749207779719,11.917147776948411],[79.76136435308251,11.913743829514146],[79.76320882932407,11.902988802990933],[79.77154341959317,11.9027490068612],[79.77266625284534,11.875823816515947],[79.75736141849472,11.876111216459549],[79.75703115506383,11.868207184713867],[79.75182434211973,11.887959778121285],[79.74303782633467,11.888648035578456],[79.67397047955404,11.880662435323188],[79.67380678945182,11.89158843106128],[79.6953575530087,11.894797687863047],[79.69624346436444,11.919177025199588]]]]}},{"id":"3282","type":"Feature","properties":{"ST_NAME":"PUDUCHERRY","AC_NO":20,"AC_NAME":"Manavely","DIST_NAME":"PONDICHERRY","PC_NAME":"PONDICHERRY"},"geometry":{"type":"Polygon","coordinates":[[[79.82479506404104,11.889963830966053],[79.80770925997444,11.83640227204728],[79.80060534156331,11.855314396842004],[79.78166908526015,11.855812303794835],[79.77581293391984,11.838457934286282],[79.76609178420853,11.84059092293279],[79.77002262734243,11.874593930665412],[79.77960774829899,11.87795841584824],[79.77837913498917,11.86322214098908],[79.78506296388474,11.862958220545465],[79.796490106833,11.894865040789057],[79.82479506404104,11.889963830966053]]]}},{"id":"3283","type":"Feature","properties":{"ST_NAME":"PUDUCHERRY","AC_NO":22,"AC_NAME":"Nettapakkam (SC)","DIST_NAME":"PONDICHERRY","PC_NAME":"PONDICHERRY"},"geometry":{"type":"MultiPolygon","coordinates":[[[[79.67966061694398,11.814510698709853],[79.69027594457924,11.805389566775148],[79.68166740372777,11.797014986352565],[79.67479438175536,11.806696758348778],[79.67966061694398,11.814510698709853]]],[[[79.64731887196842,11.844217655820216],[79.6617242547706,11.839308530164601],[79.65943703059452,11.829465257016068],[79.67126195807299,11.82357728406447],[79.67122518749244,11.81485384223106],[79.64628653119854,11.81625731162569],[79.64098927973151,11.824145302164027],[79.64731887196842,11.844217655820216]]],[[[79.63066579199278,11.881208816633603],[79.64111825690208,11.886605745358906],[79.6485352239215,11.870468404093629],[79.66267486155567,11.867220006997798],[79.65780732774601,11.852644532719069],[79.62685282659675,11.854277764507287],[79.62849054240468,11.869791066204812],[79.6019717431015,11.85780279306448],[79.59932711485453,11.882945036084607],[79.60817028163325,11.876873367611893],[79.62117168962186,11.890557672198838],[79.63066579199278,11.881208816633603]]]]}},{"id":"3284","type":"Feature","properties":{"ST_NAME":"PUDUCHERRY","AC_NO":21,"AC_NAME":"Embalam (SC)","DIST_NAME":"PONDICHERRY","PC_NAME":"PONDICHERRY"},"geometry":{"type":"MultiPolygon","coordinates":[[[[79.73769538213622,11.842942003470739],[79.76436301024478,11.833780109764291],[79.76774908275405,11.822746582089167],[79.78015470517556,11.831888291411587],[79.79746926529441,11.824601324991193],[79.7982190129971,11.838742806235587],[79.80698747399276,11.833470691719072],[79.80041423652784,11.809949181709442],[79.74420477043384,11.813916918630923],[79.74076916686363,11.834852485653755],[79.72947163690657,11.837040355428087],[79.73808672662119,11.836911950226352],[79.73769538213622,11.842942003470739]]],[[[79.70938193532811,11.883695078764902],[79.75182434211973,11.887959778121285],[79.75703115506383,11.868207184713867],[79.7518219202455,11.848389328404835],[79.74308000453863,11.848460191384788],[79.74185329419424,11.862850563602649],[79.73376329164267,11.865572325802248],[79.72108516564793,11.862495055302588],[79.71962040565722,11.85304177855528],[79.70823502272816,11.869104578613474],[79.70938193532811,11.883695078764902]]]]}},{"id":"3285","type":"Feature","properties":{"ST_NAME":"PUDUCHERRY","AC_NO":29,"AC_NAME":"Mahe","DIST_NAME":"MAHE","PC_NAME":"PONDICHERRY"},"geometry":{"type":"MultiPolygon","coordinates":[[[[75.54199851342071,11.698735552403889],[75.5365868286193,11.69393882311823],[75.53055591472372,11.704027559923986],[75.53585313651308,11.709934124560277],[75.54199851342071,11.698735552403889]]],[[[75.53821831932004,11.762709882854836],[75.54623518180824,11.75634614066189],[75.54328633899343,11.73437909711771],[75.55550572351041,11.721747548810356],[75.54788132516308,11.715416011339926],[75.53658716856302,11.719389930201146],[75.53116885126155,11.708435934970453],[75.52663646510086,11.726135066779932],[75.54160290794789,11.738838631897409],[75.53126155517668,11.758628540874497],[75.53821831932004,11.762709882854836]]]]}},{"id":"3286","type":"Feature","properties":{"ST_NAME":"PUDUCHERRY","AC_NO":23,"AC_NAME":"Bahour","DIST_NAME":"PONDICHERRY","PC_NAME":"PONDICHERRY"},"geometry":{"type":"MultiPolygon","coordinates":[[[[79.6925612684878,11.82247603364209],[79.70259985909627,11.813470707407248],[79.69195775954302,11.814165201662775],[79.6925612684878,11.82247603364209]]],[[[79.74420477043384,11.813916918630923],[79.80041423652784,11.809949181709442],[79.79576496638015,11.785536737630366],[79.77187010821899,11.782224774653685],[79.76584244357394,11.791869367777167],[79.75503111859132,11.775275800437896],[79.71239685852828,11.791545881637205],[79.72280034815759,11.796493581013976],[79.72446185283229,11.81039613397445],[79.73570339819332,11.809337781213685],[79.72947163690657,11.837040355428087],[79.74076916686363,11.834852485653755],[79.74420477043384,11.813916918630923]]]]}},{"id":"3287","type":"Feature","properties":{"ST_NAME":"PUDUCHERRY","AC_NO":24,"AC_NAME":"Nedungadu (SC)","DIST_NAME":"KARAIKAL","PC_NAME":"PONDICHERRY"},"geometry":{"type":"Polygon","coordinates":[[[79.76269977257652,10.962134920889923],[79.74671818849367,11.002630150660991],[79.75574788006065,11.003792864349236],[79.78599748359704,10.99742801868814],[79.7977079066946,10.982551333577248],[79.81516529893946,11.003769567411666],[79.82060145249511,10.998214920082546],[79.84019704495773,11.0021157411486],[79.83936279605626,10.995896986756577],[79.85118366219632,10.994342238803313],[79.85425816188473,10.964585622928212],[79.8105383778439,10.962699284144719],[79.80729095831111,10.946142155536108],[79.78517031325941,10.951875179795763],[79.78295484239214,10.965356619812212],[79.76269977257652,10.962134920889923]]]}},{"id":"3288","type":"Feature","properties":{"ST_NAME":"PUDUCHERRY","AC_NO":26,"AC_NAME":"Karaikal North","DIST_NAME":"KARAIKAL","PC_NAME":"PONDICHERRY"},"geometry":{"type":"Polygon","coordinates":[[[79.85425816188473,10.964585622928212],[79.85259366876284,10.92337812290208],[79.83017275536844,10.925457571309892],[79.80528865464777,10.950139681601058],[79.81140395372955,10.950838451233608],[79.8105383778439,10.962699284144719],[79.85425816188473,10.964585622928212]]]}},{"id":"3289","type":"Feature","properties":{"ST_NAME":"PUDUCHERRY","AC_NO":25,"AC_NAME":"Thirunallar","DIST_NAME":"KARAIKAL","PC_NAME":"PONDICHERRY"},"geometry":{"type":"MultiPolygon","coordinates":[[[[79.73970673567737,10.920151232193632],[79.73882803598514,10.920128859759132],[79.73944799982542,10.921378331944538],[79.73970673567737,10.920151232193632]]],[[[79.72229550563316,10.937355811521513],[79.72162485150574,10.935038758631833],[79.72025881818996,10.937197918449215],[79.72229550563316,10.937355811521513]]],[[[79.71922800716686,10.968466086041076],[79.74615807453557,10.96505138091652],[79.74504398629097,10.956648387313294],[79.78295484239214,10.965356619812212],[79.78517031325941,10.951875179795763],[79.80729095831111,10.946142155536108],[79.8118107593591,10.937041296118991],[79.80461815430442,10.929255971286068],[79.80658245351748,10.910832947282756],[79.79524516902939,10.902726672398046],[79.77688243018008,10.905454215439761],[79.72476320216009,10.929025895928419],[79.72398885979811,10.941888252540878],[79.73727914981299,10.952461970343677],[79.73450288959674,10.957545638220665],[79.73235698308838,10.95122430805543],[79.71977007982537,10.952248607087597],[79.71922800716686,10.968466086041076]]]]}},{"id":"3290","type":"Feature","properties":{"ST_NAME":"PUDUCHERRY","AC_NO":27,"AC_NAME":"Karaikal South","DIST_NAME":"KARAIKAL","PC_NAME":"PONDICHERRY"},"geometry":{"type":"Polygon","coordinates":[[[79.85259366876284,10.92337812290208],[79.85317800596027,10.91520358138024],[79.84247407531836,10.90822421097863],[79.80429744437163,10.896948659553061],[79.80694956127331,10.93748806222436],[79.85259366876284,10.92337812290208]]]}},{"id":"3291","type":"Feature","properties":{"ST_NAME":"PUDUCHERRY","AC_NO":28,"AC_NAME":"Neravy- T.R. Pattin","DIST_NAME":"KARAIKAL","PC_NAME":"PONDICHERRY"},"geometry":{"type":"MultiPolygon","coordinates":[[[[79.80952708210918,10.878050571376832],[79.80686714110573,10.877670292150299],[79.80735378764723,10.880698262714702],[79.80952708210918,10.878050571376832]]],[[[79.76148064801356,10.91280783691218],[79.76209750739412,10.901596238075967],[79.76780176324081,10.901830698527988],[79.76462350696931,10.910412846076042],[79.77560645227601,10.909095119843983],[79.77691765752394,10.896624050159858],[79.75620825830453,10.891815017249314],[79.76350361809756,10.89985285012898],[79.75694633010909,10.896533509114192],[79.76148064801356,10.91280783691218]],[[79.76885864021415,10.901015650152203],[79.76654994202624,10.898706623711746],[79.77034802004516,10.901451397763822],[79.76885864021415,10.901015650152203]],[[79.75808420542182,10.900576232407275],[79.75854715392808,10.899859237114129],[79.75855080067896,10.900550984840152],[79.75808420542182,10.900576232407275]],[[79.77060646901339,10.90086208281889],[79.77134821185058,10.899985336454165],[79.77119254370098,10.901044316042373],[79.77060646901339,10.90086208281889]],[[79.7709733150665,10.899254631895815],[79.77143660171788,10.898583118016518],[79.77157576281127,10.89905278625713],[79.7709733150665,10.899254631895815]],[[79.77026333898198,10.902763223543957],[79.76968620985076,10.902590115741305],[79.77044884393905,10.90225592407171],[79.77026333898198,10.902763223543957]],[[79.76919668278072,10.903478678298427],[79.76919821162824,10.903809099110674],[79.76858401963688,10.903748909284786],[79.76919668278072,10.903478678298427]]],[[[79.85271279475973,10.910491667156748],[79.85269890652938,10.833387483945273],[79.83097996795124,10.827444928440741],[79.8280060619303,10.849736196468314],[79.82099717667842,10.8456248018432],[79.80785450947809,10.855679066735604],[79.80740655087169,10.865505451515446],[79.81161824778394,10.859716724147574],[79.8248243918323,10.86489100321728],[79.8112193444972,10.880398126572345],[79.82873070865531,10.88352817378626],[79.79460917567297,10.887602264532916],[79.79027246849967,10.894937720599387],[79.78357626853,10.888535100714364],[79.78247692646903,10.895384088305093],[79.80658245351748,10.910832947282756],[79.80429744437163,10.896948659553061],[79.83034956388133,10.902142392757241],[79.84634906785527,10.914930253128716],[79.85271279475973,10.910491667156748]]]]}}]}